NORAD_CAT_ID,OBJECT_NAME,OBJECT_TYPE,EPOCH,MEAN_MOTION,ECCENTRICITY,INCLINATION,RA_OF_ASC_NODE,ARG_OF_PERICENTER,MEAN_ANOMALY,BSTAR,MEAN_MOTION_DOT,MEAN_MOTION_DDOT,TLE_LINE0,TLE_LINE1,TLE_LINE2,SEMIMAJOR_AXIS,PERIOD,APOGEE,PERIGEE,DECAYED
52307.0,STARLINK-3755,PAYLOAD,2024-02-19 14:40:10,15.08835442,0.0001453,53.2148,221.8634,89.882,270.2339,7.1675e-05,8.53e-06,0.0,0 STARLINK-3755,1 52307U 22041AY  24050.61123779  .00000853  00000-0  71675-4 0  9999,2 52307  53.2148 221.8634 0001453  89.8820 270.2339 15.08835442101420,6917.894,95.438,540.764,538.754,0.0
52307.0,STARLINK-3755,PAYLOAD,2024-02-19 17:50:57,15.08835137,0.0001371,53.2153,221.269,89.0212,271.0937,6.7505e-05,7.86e-06,0.0,0 STARLINK-3755,1 52307U 22041AY  24050.74371856  .00000786  00000-0  67505-4 0  9996,2 52307  53.2153 221.2690 0001371  89.0212 271.0937 15.08835137102658,6917.895,95.438,540.709,538.812,0.0
52307.0,STARLINK-3755,PAYLOAD,2024-02-19 21:01:43,15.08838208,0.0001424,53.2165,220.6738,90.9064,269.2092,5.5071e-05,5.89e-06,0.0,0 STARLINK-3755,1 52307U 22041AY  24050.87619684  .00000589  00000-0  55071-4 0  9990,2 52307  53.2165 220.6738 0001424  90.9064 269.2092 15.08838208101463,6917.886,95.438,540.736,538.766,0.0
52307.0,STARLINK-3755,PAYLOAD,2024-02-20 14:30:58,15.08838586,0.0001558,53.2177,217.4014,96.7081,263.4088,-1.9943e-05,-6.05e-06,0.0,0 STARLINK-3755,1 52307U 22041AY  24051.60483889 -.00000605  00000-0 -19943-4 0  9997,2 52307  53.2177 217.4014 0001558  96.7081 263.4088 15.08838586101570,6917.885,95.438,540.828,538.672,0.0
52307.0,STARLINK-3755,PAYLOAD,2024-02-20 17:41:44,15.08840825,0.0001468,53.217,216.8074,93.587,266.529,3.0041e-05,1.9e-06,0.0,0 STARLINK-3755,1 52307U 22041AY  24051.73731787  .00000190  00000-0  30041-4 0  9993,2 52307  53.2170 216.8074 0001468  93.5870 266.5290 15.08840825101593,6917.878,95.438,540.758,538.727,0.0
52307.0,STARLINK-3755,PAYLOAD,2024-02-21 17:32:31,15.08840823,0.0001298,53.217,212.3479,94.0379,266.0761,0.00018566,2.668e-05,0.0,0 STARLINK-3755,1 52307U 22041AY  24052.73091743  .00002668  00000-0  18566-3 0  9994,2 52307  53.2170 212.3479 0001298  94.0379 266.0761 15.08840823102951,6917.878,95.438,540.641,538.845,0.0
52307.0,STARLINK-3755,PAYLOAD,2024-02-22 09:26:23,15.08828757,0.0001347,53.2164,209.3762,94.7404,265.3742,0.0004337,6.619e-05,0.0,0 STARLINK-3755,1 52307U 22041AY  24053.39332731  .00006619  00000-0  43370-3 0  9993,2 52307  53.2164 209.3762 0001347  94.7404 265.3742 15.08828757103051,6917.915,95.438,540.712,538.848,0.0
52307.0,STARLINK-3755,PAYLOAD,2024-02-22 14:12:32,15.08837376,0.0001398,53.2166,208.4838,94.9695,265.1457,1.069e-05,-1.18e-06,0.0,0 STARLINK-3755,1 52307U 22041AY  24053.59204096 -.00000118  00000-0  10690-4 0  9996,2 52307  53.2166 208.4838 0001398  94.9695 265.1457 15.08837376101873,6917.888,95.438,540.721,538.786,0.0
52307.0,STARLINK-3755,PAYLOAD,2024-02-22 17:23:18,15.0883811,0.0001379,53.2176,207.8893,96.2109,263.904,6.7438e-05,7.85e-06,0.0,0 STARLINK-3755,1 52307U 22041AY  24053.72452280  .00000785  00000-0  67438-4 0  9992,2 52307  53.2176 207.8893 0001379  96.2109 263.9040 15.08838110101895,6917.886,95.438,540.705,538.797,0.0
52307.0,STARLINK-3755,PAYLOAD,2024-02-23 14:03:19,15.08842954,0.0001399,53.2175,204.0238,97.6372,262.4779,6.9021e-05,8.11e-06,0.0,0 STARLINK-3755,1 52307U 22041AY  24054.58564043  .00000811  00000-0  69021-4 0  9998,2 52307  53.2175 204.0238 0001399  97.6372 262.4779 15.08842954102025,6917.871,95.437,540.704,538.769,0.0
52307.0,STARLINK-3755,PAYLOAD,2024-02-23 18:49:28,15.08847721,0.0001407,53.2175,203.1319,97.6205,262.4947,0.00010465,1.378e-05,0.0,0 STARLINK-3755,1 52307U 22041AY  24054.78435595  .00001378  00000-0  10465-3 0  9995,2 52307  53.2175 203.1319 0001407  97.6205 262.4947 15.08847721103261,6917.857,95.437,540.695,538.748,0.0
52307.0,STARLINK-3755,PAYLOAD,2024-02-24 09:07:57,15.08833194,0.0001543,53.2178,200.4543,98.8379,261.2787,6.0063e-05,6.68e-06,0.0,0 STARLINK-3755,1 52307U 22041AY  24055.38052856  .00000668  00000-0  60063-4 0  9998,2 52307  53.2178 200.4543 0001543  98.8379 261.2787 15.08833194103357,6917.901,95.438,540.834,538.699,0.0
52307.0,STARLINK-3755,PAYLOAD,2024-02-24 13:54:07,15.08832953,0.0001634,53.2176,199.5626,99.3352,260.7825,5.2536e-05,5.48e-06,0.0,0 STARLINK-3755,1 52307U 22041AY  24055.57925000  .00000548  00000-0  52536-4 0  9992,2 52307  53.2176 199.5626 0001634  99.3352 260.7825 15.08832953102171,6917.902,95.438,540.897,538.637,0.0
52307.0,STARLINK-3755,PAYLOAD,2024-02-25 08:58:44,15.08847885,0.0001854,53.2173,195.9911,130.6779,229.4374,2.6197e-05,1.29e-06,0.0,0 STARLINK-3755,1 52307U 22041AY  24056.37412143  .00000129  00000-0  26197-4 0  9999,2 52307  53.2173 195.9911 0001854 130.6779 229.4374 15.08847885103500,6917.856,95.437,541.004,538.439,0.0
52307.0,STARLINK-3755,PAYLOAD,2024-02-25 15:20:16,15.08852927,0.0001392,53.2171,194.8044,97.7848,262.3303,0.00013909,1.927e-05,0.0,0 STARLINK-3755,1 52307U 22041AY  24056.63907639  .00001927  00000-0  13909-3 0  9990,2 52307  53.2171 194.8044 0001392  97.7848 262.3303 15.08852927102331,6917.841,95.437,540.669,538.743,0.0
52307.0,STARLINK-3755,PAYLOAD,2024-02-25 16:55:39,15.08855297,0.0001477,53.2157,194.5065,86.9376,273.1785,0.00026983,4.011e-05,0.0,0 STARLINK-3755,1 52307U 22041AY  24056.70531716  .00004011  00000-0  26983-3 0  9990,2 52307  53.2157 194.5065 0001477  86.9376 273.1785 15.08855297103557,6917.834,95.437,540.72,538.677,0.0
52307.0,STARLINK-3755,PAYLOAD,2024-02-26 02:27:58,15.08850074,0.000154,53.2176,192.7229,82.4507,277.666,0.00017882,2.56e-05,0.0,0 STARLINK-3755,1 52307U 22041AY  24057.10275864  .00002560  00000-0  17882-3 0  9999,2 52307  53.2176 192.7229 0001540  82.4507 277.6660 15.08850074103614,6917.85,95.437,540.78,538.649,0.0
52307.0,STARLINK-3755,PAYLOAD,2024-02-26 13:35:40,15.08838964,0.000158,53.2179,190.64,105.7933,254.3233,9.825e-05,1.276e-05,0.0,0 STARLINK-3755,1 52307U 22041AY  24057.56644475  .00001276  00000-0  98250-4 0  9999,2 52307  53.2179 190.6400 0001580 105.7933 254.3233 15.08838964102476,6917.884,95.438,540.842,538.656,0.0
52307.0,STARLINK-3755,PAYLOAD,2024-02-26 18:21:49,15.08845884,0.0001789,53.2178,189.7452,117.8123,242.3051,0.00017187,2.449e-05,0.0,0 STARLINK-3755,1 52307U 22041AY  24057.76516008  .00002449  00000-0  17187-3 0  9993,2 52307  53.2178 189.7452 0001789 117.8123 242.3051 15.08845884103719,6917.862,95.437,540.965,538.49,0.0
52307.0,STARLINK-3755,PAYLOAD,2024-02-27 11:51:04,15.08841715,0.000202,53.2161,186.4753,119.787,240.3324,-0.00011115,-2.057e-05,0.0,0 STARLINK-3755,1 52307U 22041AY  24058.49380288 -.00002057  00000-0 -11115-3 0  9995,2 52307  53.2161 186.4753 0002020 119.7870 240.3324 15.08841715103820,6917.875,95.437,541.138,538.343,0.0
52307.0,STARLINK-3755,PAYLOAD,2024-02-27 15:01:51,15.08841193,0.0001372,53.2163,185.8821,89.6456,270.4694,-6.1741e-05,-1.27e-05,0.0,0 STARLINK-3755,1 52307U 22041AY  24058.62628500 -.00001270  00000-0 -61741-4 0  9999,2 52307  53.2163 185.8821 0001372  89.6456 270.4694 15.08841193102637,6917.877,95.437,540.691,538.793,0.0
52307.0,STARLINK-3755,PAYLOAD,2024-02-27 18:12:37,15.0884554,0.0001371,53.2162,185.2858,92.0264,268.0886,9.0012e-06,-1.45e-06,0.0,0 STARLINK-3755,1 52307U 22041AY  24058.75876268 -.00000145  00000-0  90012-5 0  9992,2 52307  53.2162 185.2858 0001371  92.0264 268.0886 15.08845540102652,6917.863,95.437,540.677,538.78,0.0
52307.0,STARLINK-3755,PAYLOAD,2024-02-28 11:41:52,15.08833662,0.0001416,53.2167,182.0119,101.0124,259.1028,8.8473e-05,1.12e-05,0.0,0 STARLINK-3755,1 52307U 22041AY  24059.48741118  .00001120  00000-0  88473-4 0  9998,2 52307  53.2167 182.0119 0001416 101.0124 259.1028 15.08833662103975,6917.9,95.438,540.744,538.785,0.0
52307.0,STARLINK-3755,PAYLOAD,2024-02-28 14:52:38,15.08837817,0.0001425,53.217,181.4196,94.7236,265.3919,0.00013658,1.886e-05,0.0,0 STARLINK-3755,1 52307U 22041AY  24059.61988966  .00001886  00000-0  13658-3 0  9998,2 52307  53.2170 181.4196 0001425  94.7236 265.3919 15.08837817102781,6917.887,95.438,540.738,538.766,0.0
52307.0,STARLINK-3755,PAYLOAD,2024-02-29 14:43:25,15.08850296,0.0001291,53.2166,176.9624,86.9421,273.1719,0.00029272,4.375e-05,0.0,0 STARLINK-3755,1 52307U 22041AY  24060.61348633  .00004375  00000-0  29272-3 0  9996,2 52307  53.2166 176.9624 0001291  86.9421 273.1719 15.08850296102939,6917.849,95.437,540.607,538.821,0.0
52307.0,STARLINK-3755,PAYLOAD,2024-03-01 11:23:26,15.08839698,0.0001394,53.2168,173.0992,95.6522,264.4629,6.8304e-05,7.99e-06,0.0,0 STARLINK-3755,1 52307U 22041AY  24061.47461362  .00000799  00000-0  68304-4 0  9992,2 52307  53.2168 173.0992 0001394  95.6522 264.4629 15.08839698104275,6917.881,95.438,540.711,538.782,0.0
52307.0,STARLINK-3755,PAYLOAD,2024-03-01 14:34:12,15.08844525,0.0001392,53.2163,172.5042,93.3195,266.7957,0.00015917,2.246e-05,0.0,0 STARLINK-3755,1 52307U 22041AY  24061.60709134  .00002246  00000-0  15917-3 0  9999,2 52307  53.2163 172.5042 0001392  93.3195 266.7957 15.08844525103081,6917.867,95.437,540.695,538.769,0.0
52307.0,STARLINK-3755,PAYLOAD,2024-03-02 11:14:13,15.08851828,0.0001469,53.2164,168.6386,97.8867,262.2292,0.00024502,3.615e-05,0.0,0 STARLINK-3755,1 52307U 22041AY  24062.46820679  .00003615  00000-0  24502-3 0  9993,2 52307  53.2164 168.6386 0001469  97.8867 262.2292 15.08851828104425,6917.844,95.437,540.725,538.693,0.0
52307.0,STARLINK-3755,PAYLOAD,2024-03-02 14:24:59,15.08858599,0.0001404,53.2158,168.0438,94.4221,265.6932,0.00048858,7.5e-05,0.0,0 STARLINK-3755,1 52307U 22041AY  24062.60068505  .00007500  00000-0  48858-3 0  9998,2 52307  53.2158 168.0438 0001404  94.4221 265.6932 15.08858599103234,6917.824,95.436,540.66,538.717,0.0
52307.0,STARLINK-3755,PAYLOAD,2024-03-03 11:05:00,15.08841585,0.0001677,53.2157,164.1773,69.7046,290.4127,0.0001297,1.777e-05,0.0,0 STARLINK-3755,1 52307U 22041AY  24063.46181051  .00001777  00000-0  12970-3 0  9991,2 52307  53.2157 164.1773 0001677  69.7046 290.4127 15.08841585104571,6917.876,95.437,540.901,538.58,0.0
